[{"OBJECT_NAME":"GOKTURK 2","OBJECT_ID":"2012-073A","EPOCH":"2026-03-09T22:26:02.222880","MEAN_MOTION":14.75437858,"ECCENTRICITY":0.00010704,"INCLINATION":97.6883,"RA_OF_ASC_NODE":271.3014,"ARG_OF_PERICENTER":59.6503,"MEAN_ANOMALY":300.4813,"EPHEMERIS_TYPE":0,"CLASSIFICATION_TYPE":"U","NORAD_CAT_ID":39030,"ELEMENT_SET_NO":999,"REV_AT_EPOCH":70987,"BSTAR":0.00022394552,"MEAN_MOTION_DOT":1.475e-5,"MEAN_MOTION_DDOT":0},{"OBJECT_NAME":"SL-14 R\/B","OBJECT_ID":"1995-046C","EPOCH":"2026-03-09T21:50:36.185856","MEAN_MOTION":14.80314206,"ECCENTRICITY":0.0023586,"INCLINATION":82.5282,"RA_OF_ASC_NODE":225.2244,"ARG_OF_PERICENTER":236.9942,"MEAN_ANOMALY":284.2588,"EPHEMERIS_TYPE":0,"CLASSIFICATION_TYPE":"U","NORAD_CAT_ID":23659,"ELEMENT_SET_NO":999,"REV_AT_EPOCH":64532,"BSTAR":7.9944983e-5,"MEAN_MOTION_DOT":6.35e-6,"MEAN_MOTION_DDOT":0}]
